{"type": "FeatureCollection", "features": [ {"type": "Feature", "properties": {"norad_id": 41785, "name": "ALSAT 1B", "group": "resource", "lat": -5.302673207741621, "lon": 4.197104288459821, "alt_km": 658.606894354306, "timestamp": "2025-12-17T21:39:45.366096+00:00", "meta": {"OBJECT_NAME": "ALSAT 1B", "OBJECT_ID": "2016-059C", "EPOCH": "2025-12-17T15:09:41.460768", "MEAN_MOTION": 14.72081244, "ECCENTRICITY": 0.00107659, "INCLINATION": 97.7814, "RA_OF_ASC_NODE": 3.2107, "ARG_OF_PERICENTER": 89.4641, "MEAN_ANOMALY": 270.78, "EPHEMERIS_TYPE": 0, "CLASSIFICATION_TYPE": "U", "NORAD_CAT_ID": 41785, "ELEMENT_SET_NO": 999, "REV_AT_EPOCH": 49386, "BSTAR": 7.8653682e-05, "MEAN_MOTION_DOT": 4.48e-06, "MEAN_MOTION_DDOT": 0}, "tle": {"line1": "1 41785U 16059C   25351.63172987  .00000448  00000+0  78654-4 0  9994", "line2": "2 41785  97.7814   3.2107 0010765  89.4641 270.7800 14.72081244493864"}}, "geometry": {"type": "Point", "coordinates": [4.197104288459821, -5.302673207741621]}}, {"type": "Feature", "properties": {"norad_id": 41787, "name": "PATHFINDER 1", "group": "resource", "lat": -15.026183161933606, "lon": -3.4509287363706767, "alt_km": 670.8072072451741, "timestamp": "2025-12-17T21:39:45.366105+00:00", "meta": {"OBJECT_NAME": "PATHFINDER 1", "OBJECT_ID": "2016-059E", "EPOCH": "2025-12-17T13:32:54.264480", "MEAN_MOTION": 14.67329644, "ECCENTRICITY": 0.00299422, "INCLINATION": 97.8136, "RA_OF_ASC_NODE": 354.1142, "ARG_OF_PERICENTER": 66.5561, "MEAN_ANOMALY": 293.8787, "EPHEMERIS_TYPE": 0, "CLASSIFICATION_TYPE": "U", "NORAD_CAT_ID": 41787, "ELEMENT_SET_NO": 999, "REV_AT_EPOCH": 49307, "BSTAR": 0.00012522599, "MEAN_MOTION_DOT": 6.65e-06, "MEAN_MOTION_DDOT": 0}, "tle": {"line1": "1 41787U 16059E   25351.56451695  .00000665  00000+0  12523-3 0  9997", "line2": "2 41787  97.8136 354.1142 0029942  66.5561 293.8787 14.67329644493071"}}, "geometry": {"type": "Point", "coordinates": [-3.4509287363706767, -15.026183161933606]}}, {"type": "Feature", "properties": {"norad_id": 41790, "name": "SCATSAT 1", "group": "resource", "lat": -14.306873334187529, "lon": -133.45608415406963, "alt_km": 632.0301104583878, "timestamp": "2025-12-17T21:39:45.366114+00:00", "meta": {"OBJECT_NAME": "SCATSAT 1", "OBJECT_ID": "2016-059H", "EPOCH": "2025-12-17T14:17:49.902144", "MEAN_MOTION": 14.78952768, "ECCENTRICITY": 0.00564065, "INCLINATION": 98.1459, "RA_OF_ASC_NODE": 48.3266, "ARG_OF_PERICENTER": 112.6581, "MEAN_ANOMALY": 248.0608, "EPHEMERIS_TYPE": 0, "CLASSIFICATION_TYPE": "U", "NORAD_CAT_ID": 41790, "ELEMENT_SET_NO": 999, "REV_AT_EPOCH": 7474, "BSTAR": 0.00017510337, "MEAN_MOTION_DOT": 1.27e-05, "MEAN_MOTION_DDOT": 0}, "tle": {"line1": "1 41790U 16059H   25351.59571646  .00001270  00000+0  17510-3 0  9997", "line2": "2 41790  98.1459  48.3266 0056406 112.6581 248.0608 14.78952768 74740"}}, "geometry": {"type": "Point", "coordinates": [-133.45608415406963, -14.306873334187529]}}, {"type": "Feature", "properties": {"norad_id": 41875, "name": "GOKTURK 1A", "group": "resource", "lat": -21.610418051022002, "lon": -112.54961231689698, "alt_km": 689.6757140741993, "timestamp": "2025-12-17T21:39:45.366122+00:00", "meta": {"OBJECT_NAME": "GOKTURK 1A", "OBJECT_ID": "2016-073A", "EPOCH": "2025-12-17T15:11:43.771200", "MEAN_MOTION": 14.62785168, "ECCENTRICITY": 0.00012501, "INCLINATION": 98.1431, "RA_OF_ASC_NODE": 243.933, "ARG_OF_PERICENTER": 79.3629, "MEAN_ANOMALY": 280.7713, "EPHEMERIS_TYPE": 0, "CLASSIFICATION_TYPE": "U", "NORAD_CAT_ID": 41875, "ELEMENT_SET_NO": 999, "REV_AT_EPOCH": 48228, "BSTAR": 8.3155942e-05, "MEAN_MOTION_DOT": 3.77e-06, "MEAN_MOTION_DDOT": 0}, "tle": {"line1": "1 41875U 16073A   25351.63314550  .00000377  00000+0  83156-4 0  9998", "line2": "2 41875  98.1431 243.9330 0001250  79.3629 280.7713 14.62785168482281"}}, "geometry": {"type": "Point", "coordinates": [-112.54961231689698, -21.610418051022002]}}, {"type": "Feature", "properties": {"norad_id": 41877, "name": "RESOURCESAT-2A", "group": "resource", "lat": -16.836301850175328, "lon": 64.40776179115159, "alt_km": 825.1243648602604, "timestamp": "2025-12-17T21:39:45.366131+00:00", "meta": {"OBJECT_NAME": "RESOURCESAT-2A", "OBJECT_ID": "2016-074A", "EPOCH": "2025-12-17T14:59:08.992032", "MEAN_MOTION": 14.21601326, "ECCENTRICITY": 0.00012793, "INCLINATION": 98.7756, "RA_OF_ASC_NODE": 61.452, "ARG_OF_PERICENTER": 231.073, "MEAN_ANOMALY": 129.0333, "EPHEMERIS_TYPE": 0, "CLASSIFICATION_TYPE": "U", "NORAD_CAT_ID": 41877, "ELEMENT_SET_NO": 999, "REV_AT_EPOCH": 46850, "BSTAR": 5.5177197e-05, "MEAN_MOTION_DOT": 7.7e-07, "MEAN_MOTION_DDOT": 0}, "tle": {"line1": "1 41877U 16074A   25351.62440963  .00000077  00000+0  55177-4 0  9997", "line2": "2 41877  98.7756  61.4520 0001279 231.0730 129.0333 14.21601326468504"}}, "geometry": {"type": "Point", "coordinates": [64.40776179115159, -16.836301850175328]}}, {"type": "Feature", "properties": {"norad_id": 41948, "name": "CARTOSAT-2D", "group": "resource", "lat": 1.7351954399843332, "lon": 49.09539523619769, "alt_km": 513.6475732240815, "timestamp": "2025-12-17T21:39:45.366140+00:00", "meta": {"OBJECT_NAME": "CARTOSAT-2D", "OBJECT_ID": "2017-008A", "EPOCH": "2025-12-17T15:19:55.992000", "MEAN_MOTION": 15.19309099, "ECCENTRICITY": 0.00050271, "INCLINATION": 97.4387, "RA_OF_ASC_NODE": 49.0624, "ARG_OF_PERICENTER": 148.7559, "MEAN_ANOMALY": 211.3975, "EPHEMERIS_TYPE": 0, "CLASSIFICATION_TYPE": "U", "NORAD_CAT_ID": 41948, "ELEMENT_SET_NO": 999, "REV_AT_EPOCH": 49001, "BSTAR": 0.00023295441, "MEAN_MOTION_DOT": 4.852e-05, "MEAN_MOTION_DDOT": 0}, "tle": {"line1": "1 41948U 17008A   25351.63884250  .00004852  00000+0  23295-3 0  9996", "line2": "2 41948  97.4387  49.0624 0005027 148.7559 211.3975 15.19309099490012"}}, "geometry": {"type": "Point", "coordinates": [49.09539523619769, 1.7351954399843332]}}, {"type": "Feature", "properties": {"norad_id": 42063, "name": "SENTINEL-2B", "group": "resource", "lat": 56.326347650698004, "lon": -102.63999201042444, "alt_km": 782.8648244363758, "timestamp": "2025-12-17T21:39:45.366149+00:00", "meta": {"OBJECT_NAME": "SENTINEL-2B", "OBJECT_ID": "2017-013A", "EPOCH": "2025-12-17T16:03:23.704704", "MEAN_MOTION": 14.30818615, "ECCENTRICITY": 0.00011591, "INCLINATION": 98.5715, "RA_OF_ASC_NODE": 64.0459, "ARG_OF_PERICENTER": 92.5504, "MEAN_ANOMALY": 267.5812, "EPHEMERIS_TYPE": 0, "CLASSIFICATION_TYPE": "U", "NORAD_CAT_ID": 42063, "ELEMENT_SET_NO": 999, "REV_AT_EPOCH": 45868, "BSTAR": 0.00010001401, "MEAN_MOTION_DOT": 2.19e-06, "MEAN_MOTION_DDOT": 0}, "tle": {"line1": "1 42063U 17013A   25351.66902436  .00000219  00000+0  10001-3 0  9995", "line2": "2 42063  98.5715  64.0459 0001159  92.5504 267.5812 14.30818615458680"}}, "geometry": {"type": "Point", "coordinates": [-102.63999201042444, 56.326347650698004]}}, {"type": "Feature", "properties": {"norad_id": 42767, "name": "CARTOSAT-2E", "group": "resource", "lat": -82.36497651799179, "lon": 127.07180402407252, "alt_km": 514.6342593261043, "timestamp": "2025-12-17T21:39:45.366158+00:00", "meta": {"OBJECT_NAME": "CARTOSAT-2E", "OBJECT_ID": "2017-036C", "EPOCH": "2025-12-17T15:43:41.670624", "MEAN_MOTION": 15.19246431, "ECCENTRICITY": 0.00022895, "INCLINATION": 97.4552, "RA_OF_ASC_NODE": 49.1784, "ARG_OF_PERICENTER": 214.9484, "MEAN_ANOMALY": 145.1601, "EPHEMERIS_TYPE": 0, "CLASSIFICATION_TYPE": "U", "NORAD_CAT_ID": 42767, "ELEMENT_SET_NO": 999, "REV_AT_EPOCH": 47058, "BSTAR": 0.00019371185, "MEAN_MOTION_DOT": 4.014e-05, "MEAN_MOTION_DDOT": 0}, "tle": {"line1": "1 42767U 17036C   25351.65534341  .00004014  00000+0  19371-3 0  9992", "line2": "2 42767  97.4552  49.1784 0002289 214.9484 145.1601 15.19246431470584"}}, "geometry": {"type": "Point", "coordinates": [127.07180402407252, -82.36497651799179]}}, {"type": "Feature", "properties": {"norad_id": 42920, "name": "FORMOSAT-5", "group": "resource", "lat": 41.471659013907214, "lon": -106.51827374133627, "alt_km": 725.6576727095962, "timestamp": "2025-12-17T21:39:45.366167+00:00", "meta": {"OBJECT_NAME": "FORMOSAT-5", "OBJECT_ID": "2017-049A", "EPOCH": "2025-12-17T09:26:28.749984", "MEAN_MOTION": 14.50763418, "ECCENTRICITY": 0.00098811, "INCLINATION": 98.245, "RA_OF_ASC_NODE": 65.6198, "ARG_OF_PERICENTER": 285.8698, "MEAN_ANOMALY": 74.1408, "EPHEMERIS_TYPE": 0, "CLASSIFICATION_TYPE": "U", "NORAD_CAT_ID": 42920, "ELEMENT_SET_NO": 999, "REV_AT_EPOCH": 44031, "BSTAR": 5.5751028e-05, "MEAN_MOTION_DOT": 1.76e-06, "MEAN_MOTION_DDOT": 0}, "tle": {"line1": "1 42920U 17049A   25351.39338831  .00000176  00000+0  55751-4 0  9992", "line2": "2 42920  98.2450  65.6198 0009881 285.8698  74.1408 14.50763418440319"}}, "geometry": {"type": "Point", "coordinates": [-106.51827374133627, 41.471659013907214]}}, {"type": "Feature", "properties": {"norad_id": 42969, "name": "SENTINEL-5P", "group": "resource", "lat": -48.73258992639988, "lon": -59.41642538829599, "alt_km": 834.3280825094043, "timestamp": "2025-12-17T21:39:45.366177+00:00", "meta": {"OBJECT_NAME": "SENTINEL-5P", "OBJECT_ID": "2017-064A", "EPOCH": "2025-12-17T10:03:13.683168", "MEAN_MOTION": 14.19518686, "ECCENTRICITY": 0.00010019, "INCLINATION": 98.7789, "RA_OF_ASC_NODE": 289.9616, "ARG_OF_PERICENTER": 89.7606, "MEAN_ANOMALY": 270.3685, "EPHEMERIS_TYPE": 0, "CLASSIFICATION_TYPE": "U", "NORAD_CAT_ID": 42969, "ELEMENT_SET_NO": 999, "REV_AT_EPOCH": 42377, "BSTAR": 4.3985693e-05, "MEAN_MOTION_DOT": 4.9e-07, "MEAN_MOTION_DDOT": 0}, "tle": {"line1": "1 42969U 17064A   25351.41890837  .00000049  00000+0  43986-4 0  9990", "line2": "2 42969  98.7789 289.9616 0001001  89.7606 270.3685 14.19518686423772"}}, "geometry": {"type": "Point", "coordinates": [-59.41642538829599, -48.73258992639988]}}]}